INMARSAT 4-F2 (SOUTHPA*)
1 28899U 05044A   26159.58603185 -.00000246  00000+0  00000+0 0  9999
2 28899   5.0825  43.7036 0003033  34.3540 173.3775  1.00272240 75439
GSAT-8 (GAGAN/PRN 127)  
1 37605U 11022A   26159.86029625  .00000101  00000+0  00000+0 0  9998
2 37605   2.1085  81.9244 0002248 210.0745 330.0215  1.00271115 53136
LUCH 5A (SDCM/PRN 140)  
1 37951U 11074B   26159.62578126 -.00000035  00000+0  00000+0 0  9995
2 37951   8.7313  73.9336 0002316  16.8767 198.4781  1.00269774 52963
SES-5 (EGNOS/PRN 136)   
1 38652U 12036A   26159.62992891  .00000050  00000+0  00000+0 0  9998
2 38652   0.0520 307.9114 0002005 126.2440  54.6226  1.00271642 44370
GSAT-10 (GAGAN/PRN 128) 
1 38779U 12051B   26159.71668308 -.00000149  00000+0  00000+0 0  9998
2 38779   0.0142 274.8392 0007954 174.5967 148.7064  1.00271593 50016
LUCH 5B (SDCM/PRN 125)  
1 38977U 12061A   26158.98402782 -.00000125  00000+0  00000+0 0  9993
2 38977  10.4613  49.9703 0001826 137.8751  46.4873  1.00273996 49510
ASTRA 5B (EGNOS/PRN 123)
1 39617U 14011B   26159.72012024  .00000153  00000+0  00000+0 0  9991
2 39617   0.0557 319.2795 0002076 105.9688 114.6004  1.00270153 44589
LUCH 5V (SDCM/PRN 141)  
1 39727U 14023A   26159.79020603 -.00000252  00000+0  00000+0 0  9996
2 39727   5.1118  69.8346 0002817  32.5615 173.9299  1.00267457 44271
GSAT-15 (GAGAN/PRN 139) 
1 41028U 15065A   26159.79003270 -.00000241  00000+0  00000+0 0  9999
2 41028   0.0502 111.6904 0003953 327.3634 196.0460  1.00270840 38711
EUTELSAT 117 WEST B (W*)
1 41589U 16038B   26159.62959534  .00000004  00000+0  00000+0 0  9993
2 41589   0.0210 163.4448 0000220 214.4322 348.7805  1.00272949 36574
SES-15 (WAAS/PRN 133)   
1 42709U 17026A   26159.53201693  .00000076  00000+0  00000+0 0  9991
2 42709   0.0197 332.0701 0000516  88.0806 259.1449  1.00270105  7343
QZS-2 (QZSS/PRN 194)    
1 42738U 17028A   26159.56585652 -.00000150  00000+0  00000+0 0  9992
2 42738  39.4403 243.2817 0760493 269.1680  89.5416  1.00286250  7540
QZS-3 (QZSS/PRN 199)    
1 42917U 17048A   26159.79664619 -.00000332  00000+0  00000+0 0  9991
2 42917   0.0574 182.0267 0002678 265.0011 223.9702  1.00269443 32172
QZS-4 (QZSS/PRN 195)    
1 42965U 17062A   26159.36948078 -.00000310  00000+0  00000+0 0  9993
2 42965  40.1136 343.5961 0745005 271.5827 272.2936  1.00253721 31711
BEIDOU-3 G1 (PRN 130)   
1 43683U 18085A   26159.73189774 -.00000092  00000+0  00000+0 0  9995
2 43683   2.8459  97.6156 0008508 347.2290 235.7388  1.00271619 27974
EUTELSAT 5 WEST B (EGN*)
1 44624U 19067A   26159.77049935 -.00000026  00000+0  00000+0 0  9997
2 44624   0.0633 346.9208 0003145  90.8178  91.8083  1.00271997 24351
BEIDOU-3 G2 (PRN 144)   
1 45344U 20017A   26159.78731568 -.00000125  00000+0  00000+0 0  9995
2 45344   2.8465  47.2148 0002536  28.6160 184.8290  1.00273788 23173
BEIDOU-3 G3 (PRN 143)   
1 45807U 20040A   26159.86464755 -.00000338  00000+0  00000+0 0  9991
2 45807   2.4259  67.4316 0002879 338.5524 273.1203  1.00271857 21980
GALAXY 30 (WAAS/PRN 135)
1 46114U 20056C   26159.74671781  .00000053  00000+0  00000+0 0  9999
2 46114   0.0161 305.4442 0002187 127.9721 327.5322  1.00273026 21205
QZS-1R (QZSS/PRN 196)   
1 49336U 21096A   26159.65389683 -.00000231  00000+0  00000+0 0  9999
2 49336  37.4439  79.7113 0754310 271.6148 275.6279  1.00258746 16923
QZS-6 (QZSS/PRN 200)    
1 62876U 25023A   26159.83055971 -.00000217  00000+0  00000+0 0  9991
2 62876   0.0317  54.4942 0001940  30.8941 201.3332  1.00273616  4867
